{"type": "FeatureCollection", "features": [ {"type": "Feature", "properties": {"norad_id": 45526, "name": "FENGYUN 1C DEB", "group": "fengyun-1c-debris", "lat": 3.987932784294973, "lon": 56.991651345699836, "alt_km": 836.6553546192154, "timestamp": "2025-12-11T10:53:16.178298+00:00", "meta": {"OBJECT_NAME": "FENGYUN 1C DEB", "OBJECT_ID": "1999-025EYR", "EPOCH": "2025-12-09T03:17:36.206304", "MEAN_MOTION": 14.25890267, "ECCENTRICITY": 0.00541262, "INCLINATION": 98.7623, "RA_OF_ASC_NODE": 55.2922, "ARG_OF_PERICENTER": 232.7582, "MEAN_ANOMALY": 126.8653, "EPHEMERIS_TYPE": 0, "CLASSIFICATION_TYPE": "U", "NORAD_CAT_ID": 45526, "ELEMENT_SET_NO": 999, "REV_AT_EPOCH": 43325, "BSTAR": 0.002250424, "MEAN_MOTION_DOT": 5.4e-05, "MEAN_MOTION_DDOT": 0}, "tle": {"line1": "1 45526U 99025EYR 25343.13722461  .00005400  00000+0  22504-2 0  9993", "line2": "2 45526  98.7623  55.2922 0054126 232.7582 126.8653 14.25890267433253"}}, "geometry": {"type": "Point", "coordinates": [56.991651345699836, 3.987932784294973]}}, {"type": "Feature", "properties": {"norad_id": 45527, "name": "FENGYUN 1C DEB", "group": "fengyun-1c-debris", "lat": 16.968984170645275, "lon": 49.39064624486281, "alt_km": 844.1246882967571, "timestamp": "2025-12-11T10:53:16.178309+00:00", "meta": {"OBJECT_NAME": "FENGYUN 1C DEB", "OBJECT_ID": "1999-025EYS", "EPOCH": "2025-12-09T14:58:34.836384", "MEAN_MOTION": 14.24468138, "ECCENTRICITY": 0.0055018, "INCLINATION": 98.7374, "RA_OF_ASC_NODE": 50.2608, "ARG_OF_PERICENTER": 234.6842, "MEAN_ANOMALY": 124.9185, "EPHEMERIS_TYPE": 0, "CLASSIFICATION_TYPE": "U", "NORAD_CAT_ID": 45527, "ELEMENT_SET_NO": 999, "REV_AT_EPOCH": 39535, "BSTAR": 0.0025833, "MEAN_MOTION_DOT": 6.039e-05, "MEAN_MOTION_DDOT": 0}, "tle": {"line1": "1 45527U 99025EYS 25343.62401431  .00006039  00000+0  25833-2 0  9996", "line2": "2 45527  98.7374  50.2608 0055018 234.6842 124.9185 14.24468138395358"}}, "geometry": {"type": "Point", "coordinates": [49.39064624486281, 16.968984170645275]}}, {"type": "Feature", "properties": {"norad_id": 46440, "name": "FENGYUN 1C DEB", "group": "fengyun-1c-debris", "lat": 29.910146622871395, "lon": 7.493505068663185, "alt_km": 861.0551148836175, "timestamp": "2025-12-11T10:53:16.178319+00:00", "meta": {"OBJECT_NAME": "FENGYUN 1C DEB", "OBJECT_ID": "1999-025EYV", "EPOCH": "2025-12-09T20:39:53.273664", "MEAN_MOTION": 14.20313066, "ECCENTRICITY": 0.01761433, "INCLINATION": 98.5935, "RA_OF_ASC_NODE": 10.9357, "ARG_OF_PERICENTER": 143.5356, "MEAN_ANOMALY": 30.0646, "EPHEMERIS_TYPE": 0, "CLASSIFICATION_TYPE": "U", "NORAD_CAT_ID": 46440, "ELEMENT_SET_NO": 999, "REV_AT_EPOCH": 62328, "BSTAR": 0.00048502301, "MEAN_MOTION_DOT": 1.17e-05, "MEAN_MOTION_DDOT": 0}, "tle": {"line1": "1 46440U 99025EYV 25343.86103326  .00001170  00000+0  48502-3 0  9999", "line2": "2 46440  98.5935  10.9357 0176143 143.5356  30.0646 14.20313066623289"}}, "geometry": {"type": "Point", "coordinates": [7.493505068663185, 29.910146622871395]}}, {"type": "Feature", "properties": {"norad_id": 46443, "name": "FENGYUN 1C DEB", "group": "fengyun-1c-debris", "lat": -80.67763656656363, "lon": 133.7146631477356, "alt_km": 861.1724770941901, "timestamp": "2025-12-11T10:53:16.178329+00:00", "meta": {"OBJECT_NAME": "FENGYUN 1C DEB", "OBJECT_ID": "1999-025EYY", "EPOCH": "2025-12-10T10:03:33.079968", "MEAN_MOTION": 14.10816781, "ECCENTRICITY": 0.00965411, "INCLINATION": 99.2139, "RA_OF_ASC_NODE": 51.2431, "ARG_OF_PERICENTER": 2.6286, "MEAN_ANOMALY": 58.4409, "EPHEMERIS_TYPE": 0, "CLASSIFICATION_TYPE": "U", "NORAD_CAT_ID": 46443, "ELEMENT_SET_NO": 999, "REV_AT_EPOCH": 59563, "BSTAR": 0.0024182078, "MEAN_MOTION_DOT": 4.479e-05, "MEAN_MOTION_DDOT": 0}, "tle": {"line1": "1 46443U 99025EYY 25344.41913287  .00004479  00000+0  24182-2 0  9991", "line2": "2 46443  99.2139  51.2431 0096541   2.6286  58.4409 14.10816781595636"}}, "geometry": {"type": "Point", "coordinates": [133.7146631477356, -80.67763656656363]}}, {"type": "Feature", "properties": {"norad_id": 46444, "name": "FENGYUN 1C DEB", "group": "fengyun-1c-debris", "lat": -57.833998239410924, "lon": 153.70369442775814, "alt_km": 801.7025459180804, "timestamp": "2025-12-11T10:53:16.178340+00:00", "meta": {"OBJECT_NAME": "FENGYUN 1C DEB", "OBJECT_ID": "1999-025EYZ", "EPOCH": "2025-12-10T06:55:42.866112", "MEAN_MOTION": 14.2714604, "ECCENTRICITY": 0.0084275, "INCLINATION": 98.5133, "RA_OF_ASC_NODE": 346.348, "ARG_OF_PERICENTER": 158.032, "MEAN_ANOMALY": 217.9219, "EPHEMERIS_TYPE": 0, "CLASSIFICATION_TYPE": "U", "NORAD_CAT_ID": 46444, "ELEMENT_SET_NO": 999, "REV_AT_EPOCH": 62547, "BSTAR": 0.00072626, "MEAN_MOTION_DOT": 1.798e-05, "MEAN_MOTION_DDOT": 0}, "tle": {"line1": "1 46444U 99025EYZ 25344.28869058  .00001798  00000+0  72626-3 0  9991", "line2": "2 46444  98.5133 346.3480 0084275 158.0320 217.9219 14.27146040625470"}}, "geometry": {"type": "Point", "coordinates": [153.70369442775814, -57.833998239410924]}}, {"type": "Feature", "properties": {"norad_id": 46449, "name": "FENGYUN 1C DEB", "group": "fengyun-1c-debris", "lat": 68.8368541575668, "lon": -3.2737057616484555, "alt_km": 954.8011534649331, "timestamp": "2025-12-11T10:53:16.178351+00:00", "meta": {"OBJECT_NAME": "FENGYUN 1C DEB", "OBJECT_ID": "1999-025EZE", "EPOCH": "2025-11-27T19:57:02.428704", "MEAN_MOTION": 14.19021773, "ECCENTRICITY": 0.02029501, "INCLINATION": 98.6463, "RA_OF_ASC_NODE": 6.5721, "ARG_OF_PERICENTER": 314.0231, "MEAN_ANOMALY": 44.4375, "EPHEMERIS_TYPE": 0, "CLASSIFICATION_TYPE": "U", "NORAD_CAT_ID": 46449, "ELEMENT_SET_NO": 999, "REV_AT_EPOCH": 57425, "BSTAR": 0.00050383916, "MEAN_MOTION_DOT": 1.244e-05, "MEAN_MOTION_DDOT": 0}, "tle": {"line1": "1 46449U 99025EZE 25331.83127811  .00001244  00000+0  50384-3 0  9990", "line2": "2 46449  98.6463   6.5721 0202950 314.0231  44.4375 14.19021773574253"}}, "geometry": {"type": "Point", "coordinates": [-3.2737057616484555, 68.8368541575668]}}, {"type": "Feature", "properties": {"norad_id": 46450, "name": "FENGYUN 1C DEB", "group": "fengyun-1c-debris", "lat": -59.18868561827295, "lon": -143.97772033289107, "alt_km": 962.2269691463362, "timestamp": "2025-12-11T10:53:16.178361+00:00", "meta": {"OBJECT_NAME": "FENGYUN 1C DEB", "OBJECT_ID": "1999-025EZF", "EPOCH": "2025-12-05T08:02:04.531488", "MEAN_MOTION": 14.03487507, "ECCENTRICITY": 0.0182173, "INCLINATION": 98.079, "RA_OF_ASC_NODE": 196.8025, "ARG_OF_PERICENTER": 82.0832, "MEAN_ANOMALY": 280.097, "EPHEMERIS_TYPE": 0, "CLASSIFICATION_TYPE": "U", "NORAD_CAT_ID": 46450, "ELEMENT_SET_NO": 999, "REV_AT_EPOCH": 61015, "BSTAR": 0.0037253219, "MEAN_MOTION_DOT": 6.729e-05, "MEAN_MOTION_DDOT": 0}, "tle": {"line1": "1 46450U 99025EZF 25339.33477467  .00006729  00000+0  37253-2 0  9992", "line2": "2 46450  98.0790 196.8025 0182173  82.0832 280.0970 14.03487507610158"}}, "geometry": {"type": "Point", "coordinates": [-143.97772033289107, -59.18868561827295]}}, {"type": "Feature", "properties": {"norad_id": 46451, "name": "FENGYUN 1C DEB", "group": "fengyun-1c-debris", "lat": -13.667914327323514, "lon": -177.23827213487633, "alt_km": 705.5699884522701, "timestamp": "2025-12-11T10:53:16.178372+00:00", "meta": {"OBJECT_NAME": "FENGYUN 1C DEB", "OBJECT_ID": "1999-025EZG", "EPOCH": "2025-12-10T00:18:30.985632", "MEAN_MOTION": 14.20328532, "ECCENTRICITY": 0.01713653, "INCLINATION": 98.1526, "RA_OF_ASC_NODE": 3.4302, "ARG_OF_PERICENTER": 193.8272, "MEAN_ANOMALY": 196.8039, "EPHEMERIS_TYPE": 0, "CLASSIFICATION_TYPE": "U", "NORAD_CAT_ID": 46451, "ELEMENT_SET_NO": 999, "REV_AT_EPOCH": 56968, "BSTAR": 0.0035474867, "MEAN_MOTION_DOT": 8.77e-05, "MEAN_MOTION_DDOT": 0}, "tle": {"line1": "1 46451U 99025EZG 25344.01285863  .00008770  00000+0  35475-2 0  9993", "line2": "2 46451  98.1526   3.4302 0171365 193.8272 196.8039 14.20328532569680"}}, "geometry": {"type": "Point", "coordinates": [-177.23827213487633, -13.667914327323514]}}, {"type": "Feature", "properties": {"norad_id": 46468, "name": "FENGYUN 1C DEB", "group": "fengyun-1c-debris", "lat": 51.582025062844664, "lon": 61.84275448520935, "alt_km": 837.5199964342919, "timestamp": "2025-12-11T10:53:16.178383+00:00", "meta": {"OBJECT_NAME": "FENGYUN 1C DEB", "OBJECT_ID": "1999-025EZK", "EPOCH": "2025-12-10T04:26:29.971104", "MEAN_MOTION": 14.2468742, "ECCENTRICITY": 0.00457147, "INCLINATION": 98.8825, "RA_OF_ASC_NODE": 71.932, "ARG_OF_PERICENTER": 237.3466, "MEAN_ANOMALY": 152.3634, "EPHEMERIS_TYPE": 0, "CLASSIFICATION_TYPE": "U", "NORAD_CAT_ID": 46468, "ELEMENT_SET_NO": 999, "REV_AT_EPOCH": 73780, "BSTAR": 0.0026815672, "MEAN_MOTION_DOT": 6.266e-05, "MEAN_MOTION_DDOT": 0}, "tle": {"line1": "1 46468U 99025EZK 25344.18506911  .00006266  00000+0  26816-2 0  9996", "line2": "2 46468  98.8825  71.9320 0045714 237.3466 152.3634 14.24687420737801"}}, "geometry": {"type": "Point", "coordinates": [61.84275448520935, 51.582025062844664]}}, {"type": "Feature", "properties": {"norad_id": 46986, "name": "FENGYUN 1C DEB", "group": "fengyun-1c-debris", "lat": 53.817641425009015, "lon": -159.3520796715688, "alt_km": 730.2629739537815, "timestamp": "2025-12-11T10:53:16.178394+00:00", "meta": {"OBJECT_NAME": "FENGYUN 1C DEB", "OBJECT_ID": "1999-025EZL", "EPOCH": "2025-12-01T08:01:27.390720", "MEAN_MOTION": 14.47112781, "ECCENTRICITY": 0.01038428, "INCLINATION": 98.2357, "RA_OF_ASC_NODE": 359.3803, "ARG_OF_PERICENTER": 247.048, "MEAN_ANOMALY": 111.973, "EPHEMERIS_TYPE": 0, "CLASSIFICATION_TYPE": "U", "NORAD_CAT_ID": 46986, "ELEMENT_SET_NO": 999, "REV_AT_EPOCH": 63235, "BSTAR": 0.00048896767, "MEAN_MOTION_DOT": 1.859e-05, "MEAN_MOTION_DDOT": 0}, "tle": {"line1": "1 46986U 99025EZL 25335.33434480  .00001859  00000+0  48897-3 0  9996", "line2": "2 46986  98.2357 359.3803 0103842 247.0480 111.9730 14.47112781632350"}}, "geometry": {"type": "Point", "coordinates": [-159.3520796715688, 53.817641425009015]}}]}